{
  "type": "FeatureCollection",
  "features": [
    {
      "type": "Feature",
      "properties": {
        "norad_id": 39617,
        "name": "ASTRA 5B (EGNOS/PRN 123)",
        "group": "gnss",
        "lat": 0.017684085856252436,
        "lon": -167.82941674567394,
        "alt_km": 35780.70376796683,
        "timestamp": "2025-12-14T05:42:18.700779+00:00",
        "meta_object_name": "ASTRA 5B (EGNOS/PRN 123)",
        "meta_object_id": "2014-011B",
        "meta_epoch": "2025-12-13T15:16:25.281408",
        "meta_mean_motion": 1.00272986,
        "meta_eccentricity": 0.00043258,
        "meta_inclination": 0.0626,
        "meta_ra_of_asc_node": 39.9704,
        "meta_arg_of_pericenter": 226.5576,
        "meta_mean_anomaly": 68.6312,
        "meta_ephemeris_type": 0,
        "meta_classification_type": "U",
        "meta_norad_cat_id": 39617,
        "meta_element_set_no": 999,
        "meta_rev_at_epoch": 4280,
        "meta_bstar": 0,
        "meta_mean_motion_dot": 1.52e-06,
        "meta_mean_motion_ddot": 0,
        "tle_line1": "1 39617U 14011B   25347.63640372  .00000152  00000+0  00000+0 0  9991",
        "tle_line2": "2 39617   0.0626  39.9704 0004325 226.5576  68.6312  1.00272986 42806"
      },
      "geometry": {
        "type": "Point",
        "coordinates": [
          -167.82941674567394,
          0.017684085856252436
        ]
      }
    },
    {
      "type": "Feature",
      "properties": {
        "norad_id": 39620,
        "name": "COSMOS 2492 (754)",
        "group": "gnss",
        "lat": -15.42574185128961,
        "lon": 147.46811657566494,
        "alt_km": 19147.318991120625,
        "timestamp": "2025-12-14T05:42:18.700791+00:00",
        "meta_object_name": "COSMOS 2492 (754)",
        "meta_object_id": "2014-012A",
        "meta_epoch": "2025-12-12T02:29:11.116896",
        "meta_mean_motion": 2.1310296,
        "meta_eccentricity": 0.00141989,
        "meta_inclination": 65.408,
        "meta_ra_of_asc_node": 320.2923,
        "meta_arg_of_pericenter": 311.6032,
        "meta_mean_anomaly": 48.2746,
        "meta_ephemeris_type": 0,
        "meta_classification_type": "U",
        "meta_norad_cat_id": 39620,
        "meta_element_set_no": 999,
        "meta_rev_at_epoch": 9125,
        "meta_bstar": 0,
        "meta_mean_motion_dot": -5.5e-07,
        "meta_mean_motion_ddot": 0,
        "tle_line1": "1 39620U 14012A   25346.10360089 -.00000055  00000+0  00000+0 0  9994",
        "tle_line2": "2 39620  65.4080 320.2923 0014198 311.6032  48.2746  2.13102960 91257"
      },
      "geometry": {
        "type": "Point",
        "coordinates": [
          147.46811657566494,
          -15.42574185128961
        ]
      }
    },
    {
      "type": "Feature",
      "properties": {
        "norad_id": 39635,
        "name": "IRNSS-1B",
        "group": "gnss",
        "lat": -9.254269316470088,
        "lon": -133.30377586885987,
        "alt_km": 35814.53192775758,
        "timestamp": "2025-12-14T05:42:18.700803+00:00",
        "meta_object_name": "IRNSS-1B",
        "meta_object_id": "2014-017A",
        "meta_epoch": "2025-12-11T18:54:44.030304",
        "meta_mean_motion": 1.00285038,
        "meta_eccentricity": 0.00181492,
        "meta_inclination": 29.2271,
        "meta_ra_of_asc_node": 243.6214,
        "meta_arg_of_pericenter": 227.0185,
        "meta_mean_anomaly": 309.1991,
        "meta_ephemeris_type": 0,
        "meta_classification_type": "U",
        "meta_norad_cat_id": 39635,
        "meta_element_set_no": 999,
        "meta_rev_at_epoch": 4291,
        "meta_bstar": 0,
        "meta_mean_motion_dot": 1.07e-06,
        "meta_mean_motion_ddot": 0,
        "tle_line1": "1 39635U 14017A   25345.78800961  .00000107  00000+0  00000+0 0  9993",
        "tle_line2": "2 39635  29.2271 243.6214 0018149 227.0185 309.1991  1.00285038 42916"
      },
      "geometry": {
        "type": "Point",
        "coordinates": [
          -133.30377586885987,
          -9.254269316470088
        ]
      }
    },
    {
      "type": "Feature",
      "properties": {
        "norad_id": 39727,
        "name": "LUCH 5V (SDCM/PRN 141)",
        "group": "gnss",
        "lat": -0.9847428216195258,
        "lon": -96.58756767313558,
        "alt_km": 35768.57717523927,
        "timestamp": "2025-12-14T05:42:18.700815+00:00",
        "meta_object_name": "LUCH 5V (SDCM/PRN 141)",
        "meta_object_id": "2014-023A",
        "meta_epoch": "2025-12-13T17:07:51.695328",
        "meta_mean_motion": 1.00268962,
        "meta_eccentricity": 0.0004533,
        "meta_inclination": 4.6721,
        "meta_ra_of_asc_node": 71.5299,
        "meta_arg_of_pericenter": 207.4708,
        "meta_mean_anomaly": 155.3432,
        "meta_ephemeris_type": 0,
        "meta_classification_type": "U",
        "meta_norad_cat_id": 39727,
        "meta_element_set_no": 999,
        "meta_rev_at_epoch": 4250,
        "meta_bstar": 0,
        "meta_mean_motion_dot": -2.54e-06,
        "meta_mean_motion_ddot": 0,
        "tle_line1": "1 39727U 14023A   25347.71379277 -.00000254  00000+0  00000+0 0  9992",
        "tle_line2": "2 39727   4.6721  71.5299 0004533 207.4708 155.3432  1.00268962 42504"
      },
      "geometry": {
        "type": "Point",
        "coordinates": [
          -96.58756767313558,
          -0.9847428216195258
        ]
      }
    },
    {
      "type": "Feature",
      "properties": {
        "norad_id": 39741,
        "name": "GPS BIIF-6  (PRN 06)",
        "group": "gnss",
        "lat": 1.1731302894048175,
        "lon": 157.9385560556607,
        "alt_km": 20262.19876236766,
        "timestamp": "2025-12-14T05:42:18.700827+00:00",
        "meta_object_name": "GPS BIIF-6  (PRN 06)",
        "meta_object_id": "2014-026A",
        "meta_epoch": "2025-12-12T23:49:07.978944",
        "meta_mean_motion": 2.00561385,
        "meta_eccentricity": 0.00391904,
        "meta_inclination": 56.5834,
        "meta_ra_of_asc_node": 338.7665,
        "meta_arg_of_pericenter": 318.6983,
        "meta_mean_anomaly": 41.0184,
        "meta_ephemeris_type": 0,
        "meta_classification_type": "U",
        "meta_norad_cat_id": 39741,
        "meta_element_set_no": 999,
        "meta_rev_at_epoch": 8480,
        "meta_bstar": 0,
        "meta_mean_motion_dot": -8.6e-07,
        "meta_mean_motion_ddot": 0,
        "tle_line1": "1 39741U 14026A   25346.99245346 -.00000086  00000+0  00000+0 0  9992",
        "tle_line2": "2 39741  56.5834 338.7665 0039190 318.6983  41.0184  2.00561385 84803"
      },
      "geometry": {
        "type": "Point",
        "coordinates": [
          157.9385560556607,
          1.1731302894048175
        ]
      }
    },
    {
      "type": "Feature",
      "properties": {
        "norad_id": 40001,
        "name": "COSMOS 2500 (755)",
        "group": "gnss",
        "lat": 55.479433309974794,
        "lon": 1.8623366426622534,
        "alt_km": 19142.13820501244,
        "timestamp": "2025-12-14T05:42:18.700838+00:00",
        "meta_object_name": "COSMOS 2500 (755)",
        "meta_object_id": "2014-032A",
        "meta_epoch": "2025-12-13T05:08:36.801312",
        "meta_mean_motion": 2.13105905,
        "meta_eccentricity": 0.00081883,
        "meta_inclination": 65.3428,
        "meta_ra_of_asc_node": 320.0161,
        "meta_arg_of_pericenter": 218.9765,
        "meta_mean_anomaly": 140.9635,
        "meta_ephemeris_type": 0,
        "meta_classification_type": "U",
        "meta_norad_cat_id": 40001,
        "meta_element_set_no": 999,
        "meta_rev_at_epoch": 8949,
        "meta_bstar": 0,
        "meta_mean_motion_dot": -6e-07,
        "meta_mean_motion_ddot": 0,
        "tle_line1": "1 40001U 14032A   25347.21431483 -.00000060  00000+0  00000+0 0  9997",
        "tle_line2": "2 40001  65.3428 320.0161 0008188 218.9765 140.9635  2.13105905 89495"
      },
      "geometry": {
        "type": "Point",
        "coordinates": [
          1.8623366426622534,
          55.479433309974794
        ]
      }
    },
    {
      "type": "Feature",
      "properties": {
        "norad_id": 40105,
        "name": "GPS BIIF-7  (PRN 09)",
        "group": "gnss",
        "lat": 47.418236784806965,
        "lon": -133.2060778572796,
        "alt_km": 20089.13126733304,
        "timestamp": "2025-12-14T05:42:18.700849+00:00",
        "meta_object_name": "GPS BIIF-7  (PRN 09)",
        "meta_object_id": "2014-045A",
        "meta_epoch": "2025-12-12T01:59:18.865536",
        "meta_mean_motion": 2.00572516,
        "meta_eccentricity": 0.00326941,
        "meta_inclination": 55.2287,
        "meta_ra_of_asc_node": 95.9251,
        "meta_arg_of_pericenter": 119.8618,
        "meta_mean_anomaly": 240.4523,
        "meta_ephemeris_type": 0,
        "meta_classification_type": "U",
        "meta_norad_cat_id": 40105,
        "meta_element_set_no": 999,
        "meta_rev_at_epoch": 8232,
        "meta_bstar": 0,
        "meta_mean_motion_dot": -9e-08,
        "meta_mean_motion_ddot": 0,
        "tle_line1": "1 40105U 14045A   25346.08285724 -.00000009  00000+0  00000+0 0  9998",
        "tle_line2": "2 40105  55.2287  95.9251 0032694 119.8618 240.4523  2.00572516 82323"
      },
      "geometry": {
        "type": "Point",
        "coordinates": [
          -133.2060778572796,
          47.418236784806965
        ]
      }
    }
  ]
}